{
  "type": "FeatureCollection",
  "features": [
    {
      "type": "Feature",
      "properties": {
        "norad_id": 29945,
        "name": "FENGYUN 1C DEB",
        "group": "fengyun-1c-debris",
        "lat": -23.546437931930104,
        "lon": 7.337953006116059,
        "alt_km": 864.182594653912,
        "timestamp": "2025-12-05T14:45:15.571480+00:00",
        "meta_object_name": "FENGYUN 1C DEB",
        "meta_object_id": "1999-025JT",
        "meta_epoch": "2025-12-04T17:12:10.654272",
        "meta_mean_motion": 14.05569395,
        "meta_eccentricity": 0.0031316,
        "meta_inclination": 98.7928,
        "meta_ra_of_asc_node": 2.5995,
        "meta_arg_of_pericenter": 24.8947,
        "meta_mean_anomaly": 90.3584,
        "meta_ephemeris_type": 0,
        "meta_classification_type": "U",
        "meta_norad_cat_id": 29945,
        "meta_element_set_no": 999,
        "meta_rev_at_epoch": 96865,
        "meta_bstar": 0.00017632,
        "meta_mean_motion_dot": 2.45e-06,
        "meta_mean_motion_ddot": 0,
        "tle_line1": "1 29945U 99025JT  25338.71678998  .00000245  00000+0  17632-3 0  9992",
        "tle_line2": "2 29945  98.7928   2.5995 0031316  24.8947  90.3584 14.05569395968652"
      },
      "geometry": {
        "type": "Point",
        "coordinates": [
          7.337953006116059,
          -23.546437931930104
        ]
      }
    },
    {
      "type": "Feature",
      "properties": {
        "norad_id": 29946,
        "name": "FENGYUN 1C DEB",
        "group": "fengyun-1c-debris",
        "lat": -69.55646245454362,
        "lon": -3.4601242539000814,
        "alt_km": 856.9811328163596,
        "timestamp": "2025-12-05T14:45:15.571546+00:00",
        "meta_object_name": "FENGYUN 1C DEB",
        "meta_object_id": "1999-025JU",
        "meta_epoch": "2025-12-04T14:06:26.644032",
        "meta_mean_motion": 14.08241948,
        "meta_eccentricity": 0.0081048,
        "meta_inclination": 98.7796,
        "meta_ra_of_asc_node": 331.0476,
        "meta_arg_of_pericenter": 6.4576,
        "meta_mean_anomaly": 119.5792,
        "meta_ephemeris_type": 0,
        "meta_classification_type": "U",
        "meta_norad_cat_id": 29946,
        "meta_element_set_no": 999,
        "meta_rev_at_epoch": 96932,
        "meta_bstar": 0.00053172,
        "meta_mean_motion_dot": 8.93e-06,
        "meta_mean_motion_ddot": 0,
        "tle_line1": "1 29946U 99025JU  25338.58780838  .00000893  00000+0  53172-3 0  9993",
        "tle_line2": "2 29946  98.7796 331.0476 0081048   6.4576 119.5792 14.08241948969325"
      },
      "geometry": {
        "type": "Point",
        "coordinates": [
          -3.4601242539000814,
          -69.55646245454362
        ]
      }
    },
    {
      "type": "Feature",
      "properties": {
        "norad_id": 29947,
        "name": "FENGYUN 1C DEB",
        "group": "fengyun-1c-debris",
        "lat": 41.06636096654343,
        "lon": 2.5847931725731574,
        "alt_km": 884.0748335139433,
        "timestamp": "2025-12-05T14:45:15.571560+00:00",
        "meta_object_name": "FENGYUN 1C DEB",
        "meta_object_id": "1999-025JV",
        "meta_epoch": "2025-12-04T15:08:41.290080",
        "meta_mean_motion": 14.03057341,
        "meta_eccentricity": 0.0040787,
        "meta_inclination": 98.8373,
        "meta_ra_of_asc_node": 9.4204,
        "meta_arg_of_pericenter": 142.8475,
        "meta_mean_anomaly": 333.282,
        "meta_ephemeris_type": 0,
        "meta_classification_type": "U",
        "meta_norad_cat_id": 29947,
        "meta_element_set_no": 999,
        "meta_rev_at_epoch": 96636,
        "meta_bstar": 0.00035537,
        "meta_mean_motion_dot": 5.14e-06,
        "meta_mean_motion_ddot": 0,
        "tle_line1": "1 29947U 99025JV  25338.63103345  .00000514  00000+0  35537-3 0  9997",
        "tle_line2": "2 29947  98.8373   9.4204 0040787 142.8475 333.2820 14.03057341966366"
      },
      "geometry": {
        "type": "Point",
        "coordinates": [
          2.5847931725731574,
          41.06636096654343
        ]
      }
    },
    {
      "type": "Feature",
      "properties": {
        "norad_id": 29948,
        "name": "FENGYUN 1C DEB",
        "group": "fengyun-1c-debris",
        "lat": -7.668960675191972,
        "lon": 144.7741253815094,
        "alt_km": 851.4179528616814,
        "timestamp": "2025-12-05T14:45:15.571571+00:00",
        "meta_object_name": "FENGYUN 1C DEB",
        "meta_object_id": "1999-025JW",
        "meta_epoch": "2025-12-04T12:50:44.343744",
        "meta_mean_motion": 14.06187009,
        "meta_eccentricity": 0.008355,
        "meta_inclination": 98.8236,
        "meta_ra_of_asc_node": 324.9206,
        "meta_arg_of_pericenter": 256.8794,
        "meta_mean_anomaly": 229.8006,
        "meta_ephemeris_type": 0,
        "meta_classification_type": "U",
        "meta_norad_cat_id": 29948,
        "meta_element_set_no": 999,
        "meta_rev_at_epoch": 96861,
        "meta_bstar": 0.00015449,
        "meta_mean_motion_dot": 2.18e-06,
        "meta_mean_motion_ddot": 0,
        "tle_line1": "1 29948U 99025JW  25338.53523546  .00000218  00000+0  15449-3 0  9997",
        "tle_line2": "2 29948  98.8236 324.9206 0083550 256.8794 229.8006 14.06187009968611"
      },
      "geometry": {
        "type": "Point",
        "coordinates": [
          144.7741253815094,
          -7.668960675191972
        ]
      }
    },
    {
      "type": "Feature",
      "properties": {
        "norad_id": 29949,
        "name": "FENGYUN 1C DEB",
        "group": "fengyun-1c-debris",
        "lat": 53.527974909247575,
        "lon": -172.43436255209068,
        "alt_km": 881.1082348773434,
        "timestamp": "2025-12-05T14:45:15.571582+00:00",
        "meta_object_name": "FENGYUN 1C DEB",
        "meta_object_id": "1999-025JX",
        "meta_epoch": "2025-12-04T13:10:46.122816",
        "meta_mean_motion": 14.06824879,
        "meta_eccentricity": 0.0023531,
        "meta_inclination": 98.7628,
        "meta_ra_of_asc_node": 354.4897,
        "meta_arg_of_pericenter": 329.3646,
        "meta_mean_anomaly": 162.1211,
        "meta_ephemeris_type": 0,
        "meta_classification_type": "U",
        "meta_norad_cat_id": 29949,
        "meta_element_set_no": 999,
        "meta_rev_at_epoch": 96992,
        "meta_bstar": 2.0564e-05,
        "meta_mean_motion_dot": -8e-08,
        "meta_mean_motion_ddot": 0,
        "tle_line1": "1 29949U 99025JX  25338.54914494 -.00000008  00000+0  20564-4 0  9998",
        "tle_line2": "2 29949  98.7628 354.4897 0023531 329.3646 162.1211 14.06824879969920"
      },
      "geometry": {
        "type": "Point",
        "coordinates": [
          -172.43436255209068,
          53.527974909247575
        ]
      }
    },
    {
      "type": "Feature",
      "properties": {
        "norad_id": 29950,
        "name": "FENGYUN 1C DEB",
        "group": "fengyun-1c-debris",
        "lat": -50.22006654316811,
        "lon": -179.7589756150493,
        "alt_km": 845.3279444525033,
        "timestamp": "2025-12-05T14:45:15.571593+00:00",
        "meta_object_name": "FENGYUN 1C DEB",
        "meta_object_id": "1999-025JY",
        "meta_epoch": "2025-12-04T16:05:01.353984",
        "meta_mean_motion": 14.10328677,
        "meta_eccentricity": 0.003218,
        "meta_inclination": 98.742,
        "meta_ra_of_asc_node": 9.9729,
        "meta_arg_of_pericenter": 265.6261,
        "meta_mean_anomaly": 212.2474,
        "meta_ephemeris_type": 0,
        "meta_classification_type": "U",
        "meta_norad_cat_id": 29950,
        "meta_element_set_no": 999,
        "meta_rev_at_epoch": 97177,
        "meta_bstar": 0.00022426,
        "meta_mean_motion_dot": 3.57e-06,
        "meta_mean_motion_ddot": 0,
        "tle_line1": "1 29950U 99025JY  25338.67015456  .00000357  00000+0  22426-3 0  9998",
        "tle_line2": "2 29950  98.7420   9.9729 0032180 265.6261 212.2474 14.10328677971777"
      },
      "geometry": {
        "type": "Point",
        "coordinates": [
          -179.7589756150493,
          -50.22006654316811
        ]
      }
    },
    {
      "type": "Feature",
      "properties": {
        "norad_id": 29953,
        "name": "FENGYUN 1C DEB",
        "group": "fengyun-1c-debris",
        "lat": 60.138680416837765,
        "lon": 162.70843597365155,
        "alt_km": 995.235752821789,
        "timestamp": "2025-12-05T14:45:15.571603+00:00",
        "meta_object_name": "FENGYUN 1C DEB",
        "meta_object_id": "1999-025KB",
        "meta_epoch": "2025-12-04T05:27:51.322176",
        "meta_mean_motion": 13.90831573,
        "meta_eccentricity": 0.0105698,
        "meta_inclination": 98.937,
        "meta_ra_of_asc_node": 325.467,
        "meta_arg_of_pericenter": 290.061,
        "meta_mean_anomaly": 87.402,
        "meta_ephemeris_type": 0,
        "meta_classification_type": "U",
        "meta_norad_cat_id": 29953,
        "meta_element_set_no": 999,
        "meta_rev_at_epoch": 95744,
        "meta_bstar": 0.00059652,
        "meta_mean_motion_dot": 7.38e-06,
        "meta_mean_motion_ddot": 0,
        "tle_line1": "1 29953U 99025KB  25338.22767734  .00000738  00000+0  59652-3 0  9999",
        "tle_line2": "2 29953  98.9370 325.4670 0105698 290.0610  87.4020 13.90831573957440"
      },
      "geometry": {
        "type": "Point",
        "coordinates": [
          162.70843597365155,
          60.138680416837765
        ]
      }
    }
  ]
}